STARLINK-1294_new
1 15551C 20025W   21326.15162126  .00000390  00000-0  26141-4 0  3261
2 15551  53.0532 288.0709 0001834  60.8237  59.2287 15.06388417    13
STARLINK-1294_old
1 25551C 20025W   21325.12294203  .00001465  00000-0  98141-4 0  3251
2 25551  53.0533 292.6888 0001911  61.6635 236.6986 15.06402672    17
